NORAD_CAT_ID,OBJECT_NAME,OBJECT_TYPE,EPOCH,MEAN_MOTION,ECCENTRICITY,INCLINATION,RA_OF_ASC_NODE,ARG_OF_PERICENTER,MEAN_ANOMALY,BSTAR,MEAN_MOTION_DOT,MEAN_MOTION_DDOT,TLE_LINE0,TLE_LINE1,TLE_LINE2,SEMIMAJOR_AXIS,PERIOD,APOGEE,PERIGEE,DECAYED
53712.0,STARLINK-4683,PAYLOAD,2023-11-09 14:11:32,15.08850749,0.0001264,53.2153,109.3934,82.8572,277.2564,0.00054702,8.431e-05,0.0,0 STARLINK-4683,1 53712U 22107N   23313.59135281  .00008431  00000-0  54702-3 0  9993,2 53712  53.2153 109.3934 0001264  82.8572 277.2564 15.08850749 66016,6917.848,95.437,540.587,538.838,0.0
53712.0,STARLINK-4683,PAYLOAD,2023-11-09 17:22:19,15.08851103,0.0001353,53.2163,108.7989,75.648,284.4662,0.00050933,7.83e-05,0.0,0 STARLINK-4683,1 53712U 22107N   23313.72383252  .00007830  00000-0  50933-3 0  9995,2 53712  53.2163 108.7989 0001353  75.6480 284.4662 15.08851103 65571,6917.846,95.437,540.647,538.775,0.0
53712.0,STARLINK-4683,PAYLOAD,2023-11-10 02:54:37,15.08846146,0.0001388,53.2162,107.0136,79.1462,280.9686,0.00027219,4.047e-05,0.0,0 STARLINK-4683,1 53712U 22107N   23314.12127193  .00004047  00000-0  27219-3 0  9998,2 53712  53.2162 107.0136 0001388  79.1462 280.9686 15.08846146 65638,6917.862,95.437,540.687,538.766,0.0
53712.0,STARLINK-4683,PAYLOAD,2023-11-10 14:02:19,15.08843495,0.0001383,53.2156,104.9323,85.958,274.157,0.00011169,1.49e-05,0.0,0 STARLINK-4683,1 53712U 22107N   23314.58495167  .00001490  00000-0  11169-3 0  9993,2 53712  53.2156 104.9323 0001383  85.9580 274.1570 15.08843495 66166,6917.87,95.437,540.691,538.778,0.0
53712.0,STARLINK-4683,PAYLOAD,2023-11-10 17:13:06,15.08845696,0.0001346,53.2155,104.3381,86.7278,273.3868,0.00019227,2.774e-05,0.0,0 STARLINK-4683,1 53712U 22107N   23314.71743057  .00002774  00000-0  19227-3 0  9991,2 53712  53.2155 104.3381 0001346  86.7278 273.3868 15.08845696 66183,6917.863,95.437,540.659,538.797,0.0
53712.0,STARLINK-4683,PAYLOAD,2023-11-11 09:06:57,15.08842368,0.000129,53.215,101.3655,90.9788,269.1352,9.1898e-07,-2.73e-06,0.0,0 STARLINK-4683,1 53712U 22107N   23315.37983097 -.00000273  00000-0  91898-6 0  9994,2 53712  53.2150 101.3655 0001290  90.9788 269.1352 15.08842368 65824,6917.873,95.437,540.631,538.846,0.0
53712.0,STARLINK-4683,PAYLOAD,2023-11-11 13:53:07,15.08838061,0.0001298,53.2155,100.4728,88.4477,271.6663,-4.3413e-05,-9.79e-06,0.0,0 STARLINK-4683,1 53712U 22107N   23315.57855329 -.00000979  00000-0 -43413-4 0  9994,2 53712  53.2155 100.4728 0001298  88.4477 271.6663 15.08838061 66318,6917.886,95.438,540.649,538.853,0.0
53712.0,STARLINK-4683,PAYLOAD,2023-11-11 18:39:16,15.08841076,0.000127,53.2172,99.5809,88.8683,271.2454,4.242e-05,3.87e-06,0.0,0 STARLINK-4683,1 53712U 22107N   23315.77727547  .00000387  00000-0  42420-4 0  9994,2 53712  53.2172  99.5809 0001270  88.8683 271.2454 15.08841076 66345,6917.877,95.437,540.621,538.864,0.0
53712.0,STARLINK-4683,PAYLOAD,2023-11-12 02:36:12,15.08836528,0.0001323,53.2174,98.094,86.7608,273.3535,4.0082e-05,3.5e-06,0.0,0 STARLINK-4683,1 53712U 22107N   23316.10847830  .00000350  00000-0  40082-4 0  9992,2 53712  53.2174  98.0940 0001323  86.7608 273.3535 15.08836528 65933,6917.891,95.438,540.671,538.841,0.0
53712.0,STARLINK-4683,PAYLOAD,2023-11-12 13:43:54,15.08838762,0.000131,53.2175,96.0115,84.0976,276.0166,9.2622e-05,1.186e-05,0.0,0 STARLINK-4683,1 53712U 22107N   23316.57215742  .00001186  00000-0  92622-4 0  9999,2 53712  53.2175  96.0115 0001310  84.0976 276.0166 15.08838762 66462,6917.884,95.438,540.655,538.843,0.0
53712.0,STARLINK-4683,PAYLOAD,2023-11-12 18:30:03,15.0884726,0.0001323,53.2173,95.1202,84.6134,275.5009,0.00010837,1.438e-05,0.0,0 STARLINK-4683,1 53712U 22107N   23316.77087126  .00001438  00000-0  10837-3 0  9991,2 53712  53.2173  95.1202 0001323  84.6134 275.5009 15.08847260 66039,6917.858,95.437,540.638,538.808,0.0
53712.0,STARLINK-4683,PAYLOAD,2023-11-13 02:26:59,15.08845212,0.0001375,53.2184,93.6337,88.2794,271.8356,1.6749e-05,-2.1e-07,0.0,0 STARLINK-4683,1 53712U 22107N   23317.10207360 -.00000021  00000-0  16749-4 0  9990,2 53712  53.2184  93.6337 0001375  88.2794 271.8356 15.08845212 66547,6917.864,95.437,540.681,538.778,0.0
53712.0,STARLINK-4683,PAYLOAD,2023-11-13 15:10:04,15.08842478,0.0001355,53.2179,91.2551,87.8509,272.2638,0.0001496,2.094e-05,0.0,0 STARLINK-4683,1 53712U 22107N   23317.63199389  .00002094  00000-0  14960-3 0  9992,2 53712  53.2179  91.2551 0001355  87.8509 272.2638 15.08842478 66167,6917.873,95.437,540.675,538.8,0.0
53712.0,STARLINK-4683,PAYLOAD,2023-11-14 08:39:19,15.08837902,0.0001655,53.2163,87.9861,87.0414,273.0768,0.00013477,1.857e-05,0.0,0 STARLINK-4683,1 53712U 22107N   23318.36063820  .00001857  00000-0  13477-3 0  9991,2 53712  53.2163  87.9861 0001655  87.0414 273.0768 15.08837902 66277,6917.887,95.438,540.897,538.607,0.0
53712.0,STARLINK-4683,PAYLOAD,2023-11-14 15:00:51,15.08840841,0.0001475,53.2161,86.7925,92.0245,268.0916,8.2332e-05,1.023e-05,0.0,0 STARLINK-4683,1 53712U 22107N   23318.62559587  .00001023  00000-0  82332-4 0  9992,2 53712  53.2161  86.7925 0001475  92.0245 268.0916 15.08840841 66771,6917.878,95.438,540.763,538.722,0.0
53712.0,STARLINK-4683,PAYLOAD,2023-11-15 11:40:52,15.08841218,0.0001392,53.2166,82.9281,92.5694,267.5457,5.1279e-05,5.28e-06,0.0,0 STARLINK-4683,1 53712U 22107N   23319.48671620  .00000528  00000-0  51279-4 0  9995,2 53712  53.2166  82.9281 0001392  92.5694 267.5457 15.08841218 66447,6917.877,95.437,540.705,538.779,0.0
53712.0,STARLINK-4683,PAYLOAD,2023-11-15 13:16:15,15.08841956,0.0001411,53.2166,82.6301,94.4811,265.6343,5.7068e-05,6.2e-06,0.0,0 STARLINK-4683,1 53712U 22107N   23319.55295535  .00000620  00000-0  57068-4 0  9995,2 53712  53.2166  82.6301 0001411  94.4811 265.6343 15.08841956 66915,6917.874,95.437,540.716,538.763,0.0
53712.0,STARLINK-4683,PAYLOAD,2023-11-16 08:20:53,15.08838078,0.0001339,53.2167,79.0625,95.175,264.9395,9.9364e-05,1.294e-05,0.0,0 STARLINK-4683,1 53712U 22107N   23320.34783649  .00001294  00000-0  99364-4 0  9995,2 53712  53.2167  79.0625 0001339  95.1750 264.9395 15.08838078 67038,6917.886,95.438,540.678,538.825,0.0
53712.0,STARLINK-4683,PAYLOAD,2023-11-17 11:22:26,15.088381,0.0001428,53.2171,74.0058,103.7482,256.3669,4.1912e-05,3.79e-06,0.0,0 STARLINK-4683,1 53712U 22107N   23321.47391875  .00000379  00000-0  41912-4 0  9995,2 53712  53.2171  74.0058 0001428 103.7482 256.3669 15.08838100 66747,6917.886,95.438,540.739,538.763,0.0
53712.0,STARLINK-4683,PAYLOAD,2023-11-17 14:33:12,15.08838386,0.0001297,53.2175,73.4128,90.7121,269.402,3.8539e-05,3.25e-06,0.0,0 STARLINK-4683,1 53712U 22107N   23321.60639921  .00000325  00000-0  38539-4 0  9999,2 53712  53.2175  73.4128 0001297  90.7121 269.4020 15.08838386 67227,6917.885,95.438,540.648,538.853,0.0
53712.0,STARLINK-4683,PAYLOAD,2023-11-18 12:48:37,15.08834784,0.0001307,53.2183,69.2512,93.2982,266.816,3.5025e-05,2.7e-06,0.0,0 STARLINK-4683,1 53712U 22107N   23322.53376386  .00000270  00000-0  35025-4 0  9991,2 53712  53.2183  69.2512 0001307  93.2982 266.8160 15.08834784 66909,6917.896,95.438,540.666,538.857,0.0
53712.0,STARLINK-4683,PAYLOAD,2023-11-18 14:23:59,15.08841089,0.0001358,53.2182,68.9519,98.4138,261.7008,9.0511e-05,1.153e-05,0.0,0 STARLINK-4683,1 53712U 22107N   23322.59999838  .00001153  00000-0  90511-4 0  9992,2 53712  53.2182  68.9519 0001358  98.4138 261.7008 15.08841089 67370,6917.877,95.437,540.682,538.803,0.0
53712.0,STARLINK-4683,PAYLOAD,2023-11-19 14:14:47,15.0884001,0.0001401,53.2195,64.4951,96.9647,263.1505,8.2407e-05,1.024e-05,0.0,0 STARLINK-4683,1 53712U 22107N   23323.59360067  .00001024  00000-0  82407-4 0  9991,2 53712  53.2195  64.4951 0001401  96.9647 263.1505 15.08840010 67520,6917.88,95.438,540.715,538.776,0.0
53712.0,STARLINK-4683,PAYLOAD,2023-11-19 23:47:06,15.08823985,0.0001507,53.2191,62.7107,104.378,255.738,0.00023831,3.505e-05,0.0,0 STARLINK-4683,1 53712U 22107N   23323.99104641  .00003505  00000-0  23831-3 0  9990,2 53712  53.2191  62.7107 0001507 104.3780 255.7380 15.08823985 67125,6917.929,95.439,540.837,538.752,0.0
53712.0,STARLINK-4683,PAYLOAD,2023-11-20 14:05:34,15.08839217,0.0001598,53.2188,60.0346,111.0918,249.0245,0.0001156,1.552e-05,0.0,0 STARLINK-4683,1 53712U 22107N   23324.58720077  .00001552  00000-0  11560-3 0  9999,2 53712  53.2188  60.0346 0001598 111.0918 249.0245 15.08839217 67676,6917.883,95.438,540.853,538.642,0.0
53712.0,STARLINK-4683,PAYLOAD,2023-11-21 01:13:16,15.0882258,0.0001582,53.2193,57.9534,94.296,265.8213,0.00031637,4.748e-05,0.0,0 STARLINK-4683,1 53712U 22107N   23325.05088822  .00004748  00000-0  31637-3 0  9994,2 53712  53.2193  57.9534 0001582  94.2960 265.8213 15.08822580 67281,6917.934,95.439,540.893,538.704,0.0
53712.0,STARLINK-4683,PAYLOAD,2023-11-21 10:45:35,15.08837109,0.0001421,53.219,56.1686,91.8438,268.2717,3.2876e-05,2.35e-06,0.0,0 STARLINK-4683,1 53712U 22107N   23325.44832524  .00000235  00000-0  32876-4 0  9997,2 53712  53.2190  56.1686 0001421  91.8438 268.2717 15.08837109 67348,6917.889,95.438,540.737,538.771,0.0
53712.0,STARLINK-4683,PAYLOAD,2023-11-21 12:20:58,15.08838588,0.0001368,53.2192,55.8711,90.8883,269.2266,-4.2895e-07,-2.95e-06,0.0,0 STARLINK-4683,1 53712U 22107N   23325.51456555 -.00000295  00000-0 -42895-6 0  9993,2 53712  53.2192  55.8711 0001368  90.8883 269.2266 15.08838588 67812,6917.885,95.438,540.696,538.803,0.0
53712.0,STARLINK-4683,PAYLOAD,2023-11-21 13:56:21,15.08837034,0.000136,53.2191,55.5734,88.866,271.2488,-1.7399e-05,-5.65e-06,0.0,0 STARLINK-4683,1 53712U 22107N   23325.58080709 -.00000565  00000-0 -17399-4 0  9993,2 53712  53.2191  55.5734 0001360  88.8660 271.2488 15.08837034 67820,6917.889,95.438,540.695,538.814,0.0
53712.0,STARLINK-4683,PAYLOAD,2023-11-22 12:11:44,15.08853306,0.0001869,53.2196,51.4141,70.3552,289.7642,0.00012279,1.667e-05,0.0,0 STARLINK-4683,1 53712U 22107N   23326.50815370  .00001667  00000-0  12279-3 0  9999,2 53712  53.2196  51.4141 0001869  70.3552 289.7642 15.08853306 67503,6917.84,95.437,540.998,538.412,0.0
